[{"OBJECT_NAME":"ONEWEB-0323","OBJECT_ID":"2021-075AH","EPOCH":"2026-01-28T23:37:13.780992","MEAN_MOTION":13.12441463,"ECCENTRICITY":0.00024673,"INCLINATION":87.894,"RA_OF_ASC_NODE":18.2789,"ARG_OF_PERICENTER":84.1177,"MEAN_ANOMALY":276.0233,"EPHEMERIS_TYPE":0,"CLASSIFICATION_TYPE":"U","NORAD_CAT_ID":49106,"ELEMENT_SET_NO":999,"REV_AT_EPOCH":21629,"BSTAR":-0.00079737857,"MEAN_MOTION_DOT":-2.74e-6,"MEAN_MOTION_DDOT":0},{"OBJECT_NAME":"ONEWEB-0329","OBJECT_ID":"2021-075AJ","EPOCH":"2026-01-28T23:46:48.913824","MEAN_MOTION":13.17650634,"ECCENTRICITY":0.00019666,"INCLINATION":87.9084,"RA_OF_ASC_NODE":33.5294,"ARG_OF_PERICENTER":91.5875,"MEAN_ANOMALY":268.5482,"EPHEMERIS_TYPE":0,"CLASSIFICATION_TYPE":"U","NORAD_CAT_ID":49107,"ELEMENT_SET_NO":999,"REV_AT_EPOCH":21525,"BSTAR":5.7355181e-5,"MEAN_MOTION_DOT":3.5e-7,"MEAN_MOTION_DDOT":0},{"OBJECT_NAME":"ONEWEB-0330","OBJECT_ID":"2021-075AK","EPOCH":"2026-01-28T23:48:01.605600","MEAN_MOTION":13.17650366,"ECCENTRICITY":0.00019008,"INCLINATION":87.9089,"RA_OF_ASC_NODE":33.5366,"ARG_OF_PERICENTER":96.4475,"MEAN_ANOMALY":263.6873,"EPHEMERIS_TYPE":0,"CLASSIFICATION_TYPE":"U","NORAD_CAT_ID":49108,"ELEMENT_SET_NO":999,"REV_AT_EPOCH":21529,"BSTAR":0.00011339237,"MEAN_MOTION_DOT":5.7e-7,"MEAN_MOTION_DDOT":0},{"OBJECT_NAME":"ONEWEB-0292","OBJECT_ID":"2021-083A","EPOCH":"2026-01-28T21:54:35.809344","MEAN_MOTION":13.1347125,"ECCENTRICITY":0.00019546,"INCLINATION":87.9009,"RA_OF_ASC_NODE":347.9346,"ARG_OF_PERICENTER":79.3224,"MEAN_ANOMALY":280.8125,"EPHEMERIS_TYPE":0,"CLASSIFICATION_TYPE":"U","NORAD_CAT_ID":49186,"ELEMENT_SET_NO":999,"REV_AT_EPOCH":21264,"BSTAR":-0.00064469377,"MEAN_MOTION_DOT":-2.23e-6,"MEAN_MOTION_DDOT":0},{"OBJECT_NAME":"ONEWEB-0303","OBJECT_ID":"2021-083B","EPOCH":"2026-01-28T22:03:13.426560","MEAN_MOTION":13.18686858,"ECCENTRICITY":0.00019754,"INCLINATION":87.9202,"RA_OF_ASC_NODE":3.1055,"ARG_OF_PERICENTER":79.2771,"MEAN_ANOMALY":280.8583,"EPHEMERIS_TYPE":0,"CLASSIFICATION_TYPE":"U","NORAD_CAT_ID":49187,"ELEMENT_SET_NO":999,"REV_AT_EPOCH":21162,"BSTAR":-2.6985887e-5,"MEAN_MOTION_DOT":2.0e-8,"MEAN_MOTION_DDOT":0},{"OBJECT_NAME":"ONEWEB-0306","OBJECT_ID":"2021-083C","EPOCH":"2026-01-28T21:48:57.741696","MEAN_MOTION":13.18687609,"ECCENTRICITY":0.00015867,"INCLINATION":87.9201,"RA_OF_ASC_NODE":3.0913,"ARG_OF_PERICENTER":89.7137,"MEAN_ANOMALY":270.4177,"EPHEMERIS_TYPE":0,"CLASSIFICATION_TYPE":"U","NORAD_CAT_ID":49188,"ELEMENT_SET_NO":999,"REV_AT_EPOCH":21166,"BSTAR":-5.4006197e-5,"MEAN_MOTION_DOT":-8.0e-8,"MEAN_MOTION_DDOT":0},{"OBJECT_NAME":"ONEWEB-0307","OBJECT_ID":"2021-083D","EPOCH":"2026-01-28T21:46:04.086336","MEAN_MOTION":13.13470421,"ECCENTRICITY":0.00018034,"INCLINATION":87.9006,"RA_OF_ASC_NODE":347.9255,"ARG_OF_PERICENTER":81.8984,"MEAN_ANOMALY":278.235,"EPHEMERIS_TYPE":0,"CLASSIFICATION_TYPE":"U","NORAD_CAT_ID":49189,"ELEMENT_SET_NO":999,"REV_AT_EPOCH":21264,"BSTAR":-0.00066015382,"MEAN_MOTION_DOT":-2.28e-6,"MEAN_MOTION_DDOT":0},{"OBJECT_NAME":"ONEWEB-0320","OBJECT_ID":"2021-083E","EPOCH":"2026-01-28T21:59:39.981408","MEAN_MOTION":13.18687214,"ECCENTRICITY":0.00018186,"INCLINATION":87.9197,"RA_OF_ASC_NODE":3.1157,"ARG_OF_PERICENTER":85.1307,"MEAN_ANOMALY":275.0032,"EPHEMERIS_TYPE":0,"CLASSIFICATION_TYPE":"U","NORAD_CAT_ID":49190,"ELEMENT_SET_NO":999,"REV_AT_EPOCH":21162,"BSTAR":0.00014067751,"MEAN_MOTION_DOT":6.8e-7,"MEAN_MOTION_DDOT":0},{"OBJECT_NAME":"ONEWEB-0321","OBJECT_ID":"2021-083F","EPOCH":"2026-01-28T19:24:08.467776","MEAN_MOTION":13.20774104,"ECCENTRICITY":0.00013949,"INCLINATION":87.9228,"RA_OF_ASC_NODE":302.2472,"ARG_OF_PERICENTER":81.4175,"MEAN_ANOMALY":278.7117,"EPHEMERIS_TYPE":0,"CLASSIFICATION_TYPE":"U","NORAD_CAT_ID":49191,"ELEMENT_SET_NO":999,"REV_AT_EPOCH":21843,"BSTAR":4.8540493e-5,"MEAN_MOTION_DOT":3.3e-7,"MEAN_MOTION_DDOT":0},{"OBJECT_NAME":"ONEWEB-0322","OBJECT_ID":"2021-083G","EPOCH":"2026-01-28T21:39:58.101120","MEAN_MOTION":13.13471114,"ECCENTRICITY":0.00012949,"INCLINATION":87.9009,"RA_OF_ASC_NODE":347.9298,"ARG_OF_PERICENTER":76.9305,"MEAN_ANOMALY":283.1969,"EPHEMERIS_TYPE":0,"CLASSIFICATION_TYPE":"U","NORAD_CAT_ID":49192,"ELEMENT_SET_NO":999,"REV_AT_EPOCH":21263,"BSTAR":-0.00061051218,"MEAN_MOTION_DOT":-2.1e-6,"MEAN_MOTION_DDOT":0},{"OBJECT_NAME":"ONEWEB-0324","OBJECT_ID":"2021-083H","EPOCH":"2026-01-28T23:28:44.069376","MEAN_MOTION":13.18685987,"ECCENTRICITY":0.00018529,"INCLINATION":87.9204,"RA_OF_ASC_NODE":3.0832,"ARG_OF_PERICENTER":88.9328,"MEAN_ANOMALY":271.2016,"EPHEMERIS_TYPE":0,"CLASSIFICATION_TYPE":"U","NORAD_CAT_ID":49193,"ELEMENT_SET_NO":999,"REV_AT_EPOCH":21165,"BSTAR":-0.00014126964,"MEAN_MOTION_DOT":-4.3e-7,"MEAN_MOTION_DDOT":0},{"OBJECT_NAME":"ONEWEB-0325","OBJECT_ID":"2021-083J","EPOCH":"2026-01-28T21:44:11.978016","MEAN_MOTION":13.18687497,"ECCENTRICITY":0.00017748,"INCLINATION":87.9198,"RA_OF_ASC_NODE":3.117,"ARG_OF_PERICENTER":83.186,"MEAN_ANOMALY":276.9474,"EPHEMERIS_TYPE":0,"CLASSIFICATION_TYPE":"U","NORAD_CAT_ID":49194,"ELEMENT_SET_NO":999,"REV_AT_EPOCH":21165,"BSTAR":4.7363911e-5,"MEAN_MOTION_DOT":3.2e-7,"MEAN_MOTION_DDOT":0},{"OBJECT_NAME":"ONEWEB-0326","OBJECT_ID":"2021-083K","EPOCH":"2026-01-28T22:05:48.365088","MEAN_MOTION":13.18686309,"ECCENTRICITY":0.00020228,"INCLINATION":87.9198,"RA_OF_ASC_NODE":3.102,"ARG_OF_PERICENTER":81.2926,"MEAN_ANOMALY":278.8436,"EPHEMERIS_TYPE":0,"CLASSIFICATION_TYPE":"U","NORAD_CAT_ID":49195,"ELEMENT_SET_NO":999,"REV_AT_EPOCH":21164,"BSTAR":-9.367487e-6,"MEAN_MOTION_DOT":9.0e-8,"MEAN_MOTION_DDOT":0},{"OBJECT_NAME":"ONEWEB-0327","OBJECT_ID":"2021-083L","EPOCH":"2026-01-28T23:54:40.302720","MEAN_MOTION":13.18686757,"ECCENTRICITY":0.00019861,"INCLINATION":87.9192,"RA_OF_ASC_NODE":3.1024,"ARG_OF_PERICENTER":77.2527,"MEAN_ANOMALY":282.8827,"EPHEMERIS_TYPE":0,"CLASSIFICATION_TYPE":"U","NORAD_CAT_ID":49196,"ELEMENT_SET_NO":999,"REV_AT_EPOCH":21167,"BSTAR":-5.9564741e-5,"MEAN_MOTION_DOT":-1.1e-7,"MEAN_MOTION_DDOT":0},{"OBJECT_NAME":"ONEWEB-0328","OBJECT_ID":"2021-083M","EPOCH":"2026-01-28T21:25:20.993376","MEAN_MOTION":13.134707,"ECCENTRICITY":0.00018522,"INCLINATION":87.9023,"RA_OF_ASC_NODE":347.8862,"ARG_OF_PERICENTER":85.8028,"MEAN_ANOMALY":274.3313,"EPHEMERIS_TYPE":0,"CLASSIFICATION_TYPE":"U","NORAD_CAT_ID":49197,"ELEMENT_SET_NO":999,"REV_AT_EPOCH":21261,"BSTAR":-7.5935726e-5,"MEAN_MOTION_DOT":-1.5e-7,"MEAN_MOTION_DDOT":0},{"OBJECT_NAME":"ONEWEB-0331","OBJECT_ID":"2021-083N","EPOCH":"2026-01-28T21:56:05.847648","MEAN_MOTION":13.18686478,"ECCENTRICITY":0.00021443,"INCLINATION":87.9203,"RA_OF_ASC_NODE":3.0956,"ARG_OF_PERICENTER":84.5359,"MEAN_ANOMALY":275.6017,"EPHEMERIS_TYPE":0,"CLASSIFICATION_TYPE":"U","NORAD_CAT_ID":49198,"ELEMENT_SET_NO":999,"REV_AT_EPOCH":21165,"BSTAR":9.2902327e-5,"MEAN_MOTION_DOT":5.0e-7,"MEAN_MOTION_DDOT":0},{"OBJECT_NAME":"ONEWEB-0333","OBJECT_ID":"2021-083P","EPOCH":"2026-01-28T21:18:02.206656","MEAN_MOTION":13.13470479,"ECCENTRICITY":0.00017608,"INCLINATION":87.9005,"RA_OF_ASC_NODE":347.9324,"ARG_OF_PERICENTER":79.4867,"MEAN_ANOMALY":280.646,"EPHEMERIS_TYPE":0,"CLASSIFICATION_TYPE":"U","NORAD_CAT_ID":49199,"ELEMENT_SET_NO":999,"REV_AT_EPOCH":21262,"BSTAR":0.00022635009,"MEAN_MOTION_DOT":9.5e-7,"MEAN_MOTION_DDOT":0}]
