ONEWEB-0323             
1 49106U 21075AH  26028.98418728 -.00000274  00000+0 -79738-3 0  9991
2 49106  87.8940  18.2789 0002467  84.1177 276.0233 13.12441463216292
ONEWEB-0329             
1 49107U 21075AJ  26028.99084391  .00000035  00000+0  57355-4 0  9993
2 49107  87.9084  33.5294 0001966  91.5875 268.5482 13.17650634215258
ONEWEB-0330             
1 49108U 21075AK  26028.99168525  .00000057  00000+0  11339-3 0  9991
2 49108  87.9089  33.5366 0001900  96.4475 263.6873 13.17650366215298
ONEWEB-0292             
1 49186U 21083A   26028.91291446 -.00000223  00000+0 -64469-3 0  9996
2 49186  87.9009 347.9346 0001954  79.3224 280.8125 13.13471250212643
ONEWEB-0303             
1 49187U 21083B   26028.91890540  .00000002  00000+0 -26986-4 0  9994
2 49187  87.9202   3.1055 0001975  79.2771 280.8583 13.18686858211628
ONEWEB-0306             
1 49188U 21083C   26028.90900164 -.00000008  00000+0 -54006-4 0  9999
2 49188  87.9201   3.0913 0001586  89.7137 270.4177 13.18687609211663
ONEWEB-0307             
1 49189U 21083D   26028.90699174 -.00000228  00000+0 -66015-3 0  9992
2 49189  87.9006 347.9255 0001803  81.8984 278.2350 13.13470421212646
ONEWEB-0320             
1 49190U 21083E   26028.91643497  .00000068  00000+0  14068-3 0  9993
2 49190  87.9197   3.1157 0001818  85.1307 275.0032 13.18687214211627
ONEWEB-0321             
1 49191U 21083F   26028.80843134  .00000033  00000+0  48540-4 0  9997
2 49191  87.9228 302.2472 0001394  81.4175 278.7117 13.20774104218435
ONEWEB-0322             
1 49192U 21083G   26028.90275580 -.00000210  00000+0 -61051-3 0  9993
2 49192  87.9009 347.9298 0001294  76.9305 283.1969 13.13471114212636
ONEWEB-0324             
1 49193U 21083H   26028.97828784 -.00000043  00000+0 -14127-3 0  9997
2 49193  87.9204   3.0832 0001852  88.9328 271.2016 13.18685987211658
ONEWEB-0325             
1 49194U 21083J   26028.90569419  .00000032  00000+0  47364-4 0  9994
2 49194  87.9198   3.1170 0001774  83.1860 276.9474 13.18687497211656
ONEWEB-0326             
1 49195U 21083K   26028.92069867  .00000009  00000+0 -93675-5 0  9991
2 49195  87.9198   3.1020 0002022  81.2926 278.8436 13.18686309211649
ONEWEB-0327             
1 49196U 21083L   26028.99629980 -.00000011  00000+0 -59565-4 0  9990
2 49196  87.9192   3.1024 0001986  77.2527 282.8827 13.18686757211677
ONEWEB-0328             
1 49197U 21083M   26028.89260409 -.00000015  00000+0 -75936-4 0  9991
2 49197  87.9023 347.8862 0001852  85.8028 274.3313 13.13470700212617
ONEWEB-0331             
1 49198U 21083N   26028.91395657  .00000050  00000+0  92902-4 0  9998
2 49198  87.9203   3.0956 0002144  84.5359 275.6017 13.18686478211655
ONEWEB-0333             
1 49199U 21083P   26028.88752554  .00000095  00000+0  22635-3 0  9992
2 49199  87.9005 347.9324 0001760  79.4867 280.6460 13.13470479212628
